NORAD_CAT_ID,OBJECT_NAME,OBJECT_TYPE,EPOCH,MEAN_MOTION,ECCENTRICITY,INCLINATION,RA_OF_ASC_NODE,ARG_OF_PERICENTER,MEAN_ANOMALY,BSTAR,MEAN_MOTION_DOT,MEAN_MOTION_DDOT,TLE_LINE0,TLE_LINE1,TLE_LINE2,SEMIMAJOR_AXIS,PERIOD,APOGEE,PERIGEE,DECAYED
55634.0,STARLINK-5500,PAYLOAD,2024-07-29 12:08:02,14.98332667,0.0003648,69.9979,247.4885,268.5475,91.5266,2.0093e-05,1.47e-06,0.0,0 STARLINK-5500,1 55634U 23021G   24211.50558529  .00000147  00000-0  20093-4 0  9990,2 55634  69.9979 247.4885 0003648 268.5475  91.5266 14.98332667 80196,6950.185,96.107,574.585,569.514,0.0
55634.0,STARLINK-5500,PAYLOAD,2024-07-29 20:08:43,14.98329673,0.0003664,69.9978,246.6457,268.3336,91.7403,2.0775e-05,1.55e-06,0.0,0 STARLINK-5500,1 55634U 23021G   24211.83938682  .00000155  00000-0  20775-4 0  9994,2 55634  69.9978 246.6457 0003664 268.3336  91.7403 14.98329673 80247,6950.194,96.107,574.605,569.512,0.0
55634.0,STARLINK-5500,PAYLOAD,2024-07-30 05:45:31,14.98328007,0.0003662,69.9977,245.6359,268.2324,91.8416,2.0728e-05,1.54e-06,0.0,0 STARLINK-5500,1 55634U 23021G   24212.23994806  .00000154  00000-0  20728-4 0  9996,2 55634  69.9977 245.6359 0003662 268.2324  91.8416 14.98328007 80009,6950.199,96.107,574.609,569.519,0.0
55634.0,STARLINK-5500,PAYLOAD,2024-07-30 12:10:03,14.98330312,0.0003674,69.9977,244.963,268.9212,91.1526,4.3298e-05,4.24e-06,0.0,0 STARLINK-5500,1 55634U 23021G   24212.50698635  .00000424  00000-0  43298-4 0  9994,2 55634  69.9977 244.9630 0003674 268.9212  91.1526 14.98330312 80343,6950.192,96.107,574.61,569.503,0.0
55634.0,STARLINK-5500,PAYLOAD,2024-07-30 20:10:44,14.98329012,0.0003662,69.9977,244.1212,268.9648,91.1091,2.3117e-05,1.83e-06,0.0,0 STARLINK-5500,1 55634U 23021G   24212.84078793  .00000183  00000-0  23117-4 0  9998,2 55634  69.9977 244.1212 0003662 268.9648  91.1091 14.98329012 80398,6950.196,96.107,574.606,569.516,0.0
55634.0,STARLINK-5500,PAYLOAD,2024-07-31 12:12:04,14.98330117,0.0003688,69.9976,242.438,268.9524,91.1212,8.1415e-06,4e-08,0.0,0 STARLINK-5500,1 55634U 23021G   24213.50838772  .00000004  00000-0  81415-5 0  9991,2 55634  69.9976 242.4380 0003688 268.9524  91.1212 14.98330117 80499,6950.193,96.107,574.621,569.494,0.0
55634.0,STARLINK-5500,PAYLOAD,2024-08-01 12:14:05,14.98332671,0.0003661,69.9976,239.9128,269.2544,90.8196,6.7563e-05,7.13e-06,0.0,0 STARLINK-5500,1 55634U 23021G   24214.50978466  .00000713  00000-0  67563-4 0  9991,2 55634  69.9976 239.9128 0003661 269.2544  90.8196 14.98332671 80648,6950.185,96.107,574.594,569.505,0.0
55634.0,STARLINK-5500,PAYLOAD,2024-08-02 10:39:58,14.98332067,0.0003618,69.9978,237.5564,269.0899,90.9845,5.4957e-05,5.63e-06,0.0,0 STARLINK-5500,1 55634U 23021G   24215.44442440  .00000563  00000-0  54957-4 0  9999,2 55634  69.9978 237.5564 0003618 269.0899  90.9845 14.98332067 80484,6950.186,96.107,574.566,569.537,0.0
55634.0,STARLINK-5500,PAYLOAD,2024-08-02 18:40:38,14.983314,0.0003612,69.9978,236.7147,269.1371,90.9375,4.6283e-05,4.59e-06,0.0,0 STARLINK-5500,1 55634U 23021G   24215.77822480  .00000459  00000-0  46283-4 0  9998,2 55634  69.9978 236.7147 0003612 269.1371  90.9375 14.98331400 80839,6950.189,96.107,574.564,569.543,0.0
55634.0,STARLINK-5500,PAYLOAD,2024-08-03 10:41:59,14.98331524,0.0003633,69.9978,235.0312,268.4287,91.6456,2.374e-06,-6.5e-07,0.0,0 STARLINK-5500,1 55634U 23021G   24216.44582466 -.00000065  00000-0  23740-5 0  9998,2 55634  69.9978 235.0312 0003633 268.4287  91.6456 14.98331524 80639,6950.188,96.107,574.578,569.528,0.0
55634.0,STARLINK-5500,PAYLOAD,2024-08-03 18:42:39,14.98331158,0.0003669,69.9977,234.1895,268.8988,91.1751,-4.3694e-06,-1.45e-06,0.0,0 STARLINK-5500,1 55634U 23021G   24216.77962461 -.00000145  00000-0 -43694-5 0  9991,2 55634  69.9977 234.1895 0003669 268.8988  91.1751 14.98331158 80989,6950.189,96.107,574.604,569.504,0.0
55634.0,STARLINK-5500,PAYLOAD,2024-08-04 10:44:00,14.98329509,0.0003669,69.9978,232.5063,268.6569,91.417,-7.3302e-06,-1.81e-06,0.0,0 STARLINK-5500,1 55634U 23021G   24217.44722584 -.00000181  00000-0 -73302-5 0  9995,2 55634  69.9978 232.5063 0003669 268.6569  91.4170 14.98329509 80785,6950.194,96.107,574.609,569.509,0.0
55634.0,STARLINK-5500,PAYLOAD,2024-08-04 18:44:40,14.98331352,0.0003685,69.9978,231.6646,268.5907,91.483,2.015e-05,1.47e-06,0.0,0 STARLINK-5500,1 55634U 23021G   24217.78102389  .00000147  00000-0  20150-4 0  9999,2 55634  69.9978 231.6646 0003685 268.5907  91.4830 14.98331352 81137,6950.189,96.107,574.615,569.493,0.0
55634.0,STARLINK-5500,PAYLOAD,2024-08-05 10:46:00,14.98335909,0.000371,69.9978,229.9811,268.2609,91.8125,8.6003e-05,9.33e-06,0.0,0 STARLINK-5500,1 55634U 23021G   24218.44861828  .00000933  00000-0  86003-4 0  9995,2 55634  69.9978 229.9811 0003710 268.2609  91.8125 14.98335909 80936,6950.175,96.107,574.618,569.461,0.0
55634.0,STARLINK-5500,PAYLOAD,2024-08-05 18:46:41,14.9832937,0.0003664,69.998,229.1391,268.3258,91.7481,1.8936e-05,1.33e-06,0.0,0 STARLINK-5500,1 55634U 23021G   24218.78242340  .00000133  00000-0  18936-4 0  9996,2 55634  69.9980 229.1391 0003664 268.3258  91.7481 14.98329370 80987,6950.195,96.107,574.606,569.513,0.0
55634.0,STARLINK-5500,PAYLOAD,2024-08-06 07:35:46,14.98325953,0.0003662,69.9981,227.7928,268.146,91.9279,4.4557e-06,-4e-07,0.0,0 STARLINK-5500,1 55634U 23021G   24219.31650687 -.00000040  00000-0  44557-5 0  9990,2 55634  69.9981 227.7928 0003662 268.1460  91.9279 14.98325953 81362,6950.205,96.107,574.616,569.525,0.0
55634.0,STARLINK-5500,PAYLOAD,2024-08-07 04:25:30,14.98331703,0.000366,69.9984,225.6046,268.3888,91.6851,-4.2876e-06,-1.44e-06,0.0,0 STARLINK-5500,1 55634U 23021G   24220.18438449 -.00000144  00000-0 -42876-5 0  9995,2 55634  69.9984 225.6046 0003660 268.3888  91.6851 14.98331703 81191,6950.188,96.107,574.596,569.509,0.0
55634.0,STARLINK-5500,PAYLOAD,2024-08-07 10:50:02,14.9833306,0.0003662,69.9984,224.9314,268.481,91.593,3.2934e-06,-5.4e-07,0.0,0 STARLINK-5500,1 55634U 23021G   24220.45142321 -.00000054  00000-0  32934-5 0  9999,2 55634  69.9984 224.9314 0003662 268.4810  91.5930 14.98333060 81532,6950.183,96.107,574.594,569.503,0.0
55634.0,STARLINK-5500,PAYLOAD,2024-08-08 09:15:55,14.9833357,0.0003646,69.9986,222.5751,268.3404,91.7338,0.00013174,1.479e-05,0.0,0 STARLINK-5500,1 55634U 23021G   24221.38605902  .00001479  00000-0  13174-3 0  9995,2 55634  69.9986 222.5751 0003646 268.3404  91.7338 14.98333570 81678,6950.182,96.107,574.581,569.513,0.0
55634.0,STARLINK-5500,PAYLOAD,2024-08-09 06:05:40,14.98330601,0.0003595,69.9988,220.3871,269.707,90.3677,2.3261e-05,1.84e-06,0.0,0 STARLINK-5500,1 55634U 23021G   24222.25394318  .00000184  00000-0  23261-4 0  9999,2 55634  69.9988 220.3871 0003595 269.7070  90.3677 14.98330601 81501,6950.191,96.107,574.555,569.557,0.0
55634.0,STARLINK-5500,PAYLOAD,2024-08-09 10:54:04,14.98331675,0.0003577,69.9988,219.8818,269.4085,90.6664,3.5411e-05,3.29e-06,0.0,0 STARLINK-5500,1 55634U 23021G   24222.45422198  .00000329  00000-0  35411-4 0  9990,2 55634  69.9988 219.8818 0003577 269.4085  90.6664 14.98331675 81835,6950.188,96.107,574.539,569.567,0.0
55634.0,STARLINK-5500,PAYLOAD,2024-08-09 17:18:37,14.98331282,0.0003604,69.9988,219.2085,270.1106,89.964,4.3487e-06,-4.1e-07,0.0,0 STARLINK-5500,1 55634U 23021G   24222.72126279 -.00000041  00000-0  43487-5 0  9996,2 55634  69.9988 219.2085 0003604 270.1106  89.9640 14.98331282 81872,6950.189,96.107,574.559,569.549,0.0
55634.0,STARLINK-5500,PAYLOAD,2024-08-10 09:19:57,14.98331211,0.0003545,69.9989,217.5254,269.8117,90.2636,-1.8852e-05,-3.18e-06,0.0,0 STARLINK-5500,1 55634U 23021G   24223.38886304 -.00000318  00000-0 -18852-4 0  9996,2 55634  69.9989 217.5254 0003545 269.8117  90.2636 14.98331211 81673,6950.189,96.107,574.518,569.59,0.0
55634.0,STARLINK-5500,PAYLOAD,2024-08-11 09:21:58,14.98335998,0.0003541,69.9988,215.0003,269.2598,90.8155,0.00010648,1.178e-05,0.0,0 STARLINK-5500,1 55634U 23021G   24224.39025624  .00001178  00000-0  10648-3 0  9995,2 55634  69.9988 215.0003 0003541 269.2598  90.8155 14.98335998 81825,6950.174,96.107,574.5,569.578,0.0
55634.0,STARLINK-5500,PAYLOAD,2024-08-11 22:11:02,14.98333367,0.0003466,69.999,213.6531,269.6185,90.4577,7.7356e-05,8.3e-06,0.0,0 STARLINK-5500,1 55634U 23021G   24224.92433822  .00000830  00000-0  77356-4 0  9991,2 55634  69.9990 213.6531 0003466 269.6185  90.4577 14.98333367 82205,6950.182,96.107,574.456,569.639,0.0
55634.0,STARLINK-5500,PAYLOAD,2024-08-12 04:35:35,14.98330859,0.0003477,69.9989,212.9798,269.5392,90.5369,6.823e-05,7.21e-06,0.0,0 STARLINK-5500,1 55634U 23021G   24225.19137934  .00000721  00000-0  68230-4 0  9996,2 55634  69.9989 212.9798 0003477 269.5392  90.5369 14.98330859 81944,6950.19,96.107,574.472,569.639,0.0
55634.0,STARLINK-5500,PAYLOAD,2024-08-12 11:00:06,14.98340891,0.0003556,69.9985,212.3068,269.8627,90.2125,0.00016999,1.936e-05,0.0,0 STARLINK-5500,1 55634U 23021G   24225.45840956  .00001936  00000-0  16999-3 0  9993,2 55634  69.9985 212.3068 0003556 269.8627  90.2125 14.98340891 81984,6950.159,96.106,574.496,569.553,0.0
55634.0,STARLINK-5500,PAYLOAD,2024-08-12 14:12:23,14.98327205,0.0003397,69.9986,211.9702,272.4317,87.6453,5.3911e-06,-2.9e-07,0.0,0 STARLINK-5500,1 55634U 23021G   24225.59194229 -.00000029  00000-0  53911-5 0  9993,2 55634  69.9986 211.9702 0003397 272.4317  87.6453 14.98327205 82309,6950.202,96.107,574.428,569.706,0.0
55634.0,STARLINK-5500,PAYLOAD,2024-08-12 15:48:31,14.98329176,0.0003406,69.9987,211.8019,271.2577,88.8192,4.1146e-06,-4.4e-07,0.0,0 STARLINK-5500,1 55634U 23021G   24225.65870106 -.00000044  00000-0  41146-5 0  9999,2 55634  69.9987 211.8019 0003406 271.2577  88.8192 14.98329176 82016,6950.195,96.107,574.428,569.693,0.0
55634.0,STARLINK-5500,PAYLOAD,2024-08-12 22:13:03,14.98334734,0.0003563,69.9985,211.1285,267.3228,92.7523,2.164e-05,1.65e-06,0.0,0 STARLINK-5500,1 55634U 23021G   24225.92573672  .00000165  00000-0  21640-4 0  9996,2 55634  69.9985 211.1285 0003563 267.3228  92.7523 14.98334734 82350,6950.178,96.107,574.52,569.567,0.0
